{
    "links": {
        "self": "http://www.neowsapp.com/rest/v1/neo/3468433?api_key=iIulBulltgU6a56xZRHN4H3l9WmuAYTsLGpBGhQ2"
    },
    "id": "3468433",
    "neo_reference_id": "3468433",
    "name": "(2009 SC100)",
    "designation": "2009 SC100",
    "nasa_jpl_url": "http://ssd.jpl.nasa.gov/sbdb.cgi?sstr=3468433",
    "absolute_magnitude_h": 23.6,
    "estimated_diameter": {
        "kilometers": {
            "estimated_diameter_min": 0.0506471459,
            "estimated_diameter_max": 0.1132504611
        },
        "meters": {
            "estimated_diameter_min": 50.6471458835,
            "estimated_diameter_max": 113.2504610618
        },
        "miles": {
            "estimated_diameter_min": 0.0314706677,
            "estimated_diameter_max": 0.0703705522
        },
        "feet": {
            "estimated_diameter_min": 166.1651821003,
            "estimated_diameter_max": 371.5566426699
        }
    },
    "is_potentially_hazardous_asteroid": false,
    "close_approach_data": [
        {
            "close_approach_date": "2009-10-06",
            "close_approach_date_full": "2009-Oct-06 02:13",
            "epoch_date_close_approach": 1254795180000,
            "relative_velocity": {
                "kilometers_per_second": "11.2099747405",
                "kilometers_per_hour": "40355.9090657446",
                "miles_per_hour": "25075.59249699"
            },
            "miss_distance": {
                "astronomical": "0.0907556418",
                "lunar": "35.3039446602",
                "kilometers": "13576850.703762966",
                "miles": "8436263.8325662908"
            },
            "orbiting_body": "Earth"
        }
    ],
    "orbital_data": {
        "orbit_id": "13",
        "orbit_determination_date": "2017-04-06 08:59:50",
        "first_observation_date": "2009-09-25",
        "last_observation_date": "2009-10-09",
        "data_arc_in_days": 14,
        "observations_used": 40,
        "orbit_uncertainty": "8",
        "minimum_orbit_intersection": ".0904887",
        "jupiter_tisserand_invariant": "3.169",
        "epoch_osculation": "2455103.5",
        "eccentricity": ".5871428396831165",
        "semi_major_axis": "2.503416495042614",
        "inclination": "13.90263719765301",
        "ascending_node_longitude": "1.980180764737862",
        "orbital_period": "1446.765324065389",
        "perihelion_distance": "1.033553425233739",
        "perihelion_argument": "37.98126261138886",
        "aphelion_distance": "3.973279564851489",
        "perihelion_time": "2455133.472526789278",
        "mean_anomaly": "352.5419074782495",
        "mean_motion": ".2488309569021225",
        "equinox": "J2000",
        "orbit_class": {
            "orbit_class_type": "AMO",
            "orbit_class_description": "Near-Earth asteroid orbits similar to that of 1221 Amor",
            "orbit_class_range": "1.017 AU < q (perihelion) < 1.3 AU"
        }
    },
    "is_sentry_object": false
}